OBJECT_NAME,OBJECT_ID,EPOCH,MEAN_MOTION,ECCENTRICITY,INCLINATION,RA_OF_ASC_NODE,ARG_OF_PERICENTER,MEAN_ANOMALY,EPHEMERIS_TYPE,CLASSIFICATION_TYPE,NORAD_CAT_ID,ELEMENT_SET_NO,REV_AT_EPOCH,BSTAR,MEAN_MOTION_DOT,MEAN_MOTION_DDOT
TOMORROW-S1,2024-149M,2026-07-14T17:58:16.266432,15.33088809,.00040186,97.3748,276.1397,132.2095,227.9489,0,U,60479,999,10631,.13816856E-3,.4338E-4,0
FLOCK 4BE-18,2024-149N,2026-07-14T18:50:02.350752,15.42705125,.00050294,97.3738,279.8183,146.5344,213.6223,0,U,60480,999,10656,.18282876E-3,.7893E-4,0
FLOCK 4BE-7,2024-149P,2026-07-14T18:03:51.152832,15.41441547,.00042577,97.3760,279.0770,149.9292,210.2200,0,U,60481,999,10649,.30523978E-3,.12695E-3,0
TOMORROW-S2,2024-149T,2026-07-14T18:41:10.595904,15.33137157,.00037927,97.3816,276.6854,150.0643,210.0817,0,U,60485,999,10631,.14125219E-3,.4443E-4,0
FLOCK 4BE-36,2024-149U,2026-07-14T16:14:20.371488,15.43530757,.00047327,97.3746,280.4490,154.4494,205.6989,0,U,60486,999,10659,.23873973E-3,.10628E-3,0
FLOCK 4BE-25,2024-149V,2026-07-14T18:47:02.085792,15.39538379,.00035874,97.3799,279.1325,143.6636,216.4854,0,U,60487,999,10648,.21823864E-3,.8494E-4,0
FLOCK 4BE-31,2024-149W,2026-07-14T16:20:36.480192,15.45144054,.00037594,97.3799,281.3946,152.4950,207.6499,0,U,60488,999,10662,.28549786E-3,.13445E-3,0
FLOCK 4BE-20,2024-149X,2026-07-14T18:13:48.976896,15.38803225,.00050216,97.3695,277.9190,154.7573,205.3919,0,U,60489,999,10645,.21824966E-3,.8293E-4,0
FLOCK 4BE-23,2024-149Y,2026-07-14T18:10:35.121216,15.38358059,.00046774,97.3779,278.3075,157.9902,202.1545,0,U,60490,999,10643,.21822599E-3,.8172E-4,0
FLOCK 4BE-17,2024-149AA,2026-07-14T18:25:45.523200,15.40562129,.0004412,97.3775,279.3683,147.9048,212.2467,0,U,60492,999,10650,.2325691E-3,.937E-4,0
NUSAT-50 (NANCY ROMAN),2024-149AB,2026-07-14T23:05:52.523808,15.30316423,.00048741,97.3787,277.0318,102.2095,257.9692,0,U,60493,999,10637,.18394477E-3,.5319E-4,0
FLOCK 4BE-22,2024-149AC,2026-07-14T18:56:38.307264,15.41978086,.00046599,97.3735,279.6261,155.1951,204.9521,0,U,60494,999,10655,.23226384E-3,.981E-4,0
FLOCK 4BE-34,2024-149AD,2026-07-14T17:48:28.027584,15.41941902,.00048978,97.3784,280.4181,162.5378,197.6038,0,U,60495,999,10657,.22976255E-3,.9692E-4,0
TYCHE,2024-149AE,2026-07-14T22:34:09.079104,15.25828856,.00031005,97.3751,273.3829,165.7548,194.3779,0,U,60496,999,10613,.96925176E-4,.2407E-4,0
FLOCK 4BE-32,2024-149AF,2026-07-14T19:42:34.447392,15.43077567,.00049219,97.3719,280.0638,160.4428,199.7009,0,U,60497,999,10659,.2430271E-3,.10656E-3,0
NUSAT-48 (HENRIETTA LEAVITT),2024-149AG,2026-07-14T18:07:33.774528,15.30270403,.00047044,97.3921,277.1172,160.0855,200.0570,0,U,60498,999,10635,.17655927E-3,.5094E-4,0
NUSAT-49 (KLARA DAN VON NEUMANN),2024-149AJ,2026-07-14T17:33:28.426464,15.30377740,.0002465,97.3780,276.8349,164.9617,195.1697,0,U,60500,999,10634,.17027051E-3,.4926E-4,0
FLOCK 4BE-11,2024-149AK,2026-07-14T05:14:04.729920,15.43855222,.00047588,97.3704,279.7090,161.2091,198.9333,0,U,60501,999,10652,.24793611E-3,.11163E-3,0
YAM-7,2024-149AN,2026-07-14T18:01:58.103616,15.32178171,.00035545,97.3783,275.8939,169.3752,190.7566,0,U,60504,999,10627,.13774403E-3,.4201E-4,0
FLOCK 4BE-24,2024-149AP,2026-07-14T18:50:40.668288,15.44090722,.00051365,97.3715,280.5518,171.5537,188.5798,0,U,60505,999,10662,.28334542E-3,.12876E-3,0
LUR-1,2024-149AQ,2026-07-14T18:32:42.227808,15.30442974,.00039084,97.3740,274.4053,185.3234,174.7966,0,U,60506,999,10619,.13262382E-3,.3828E-4,0
TANAGER-1,2024-149AR,2026-07-14T12:01:19.777440,15.43889256,.00022894,97.2318,289.6368,131.3848,228.7597,0,U,60507,999,10725,.6115673E-5,.194E-5,0
EAGLEEYE,2024-149AS,2026-07-14T19:55:29.750880,15.76689405,.00049549,97.3719,290.8110,186.2244,173.8961,0,U,60508,999,10728,.49286749E-3,.79124E-3,0
FLOCK 4BE-29,2024-149AT,2026-07-14T18:38:09.933504,15.45454725,.0003493,97.3816,282.0842,177.0482,183.0788,0,U,60509,999,10667,.58284159E-3,.27884E-3,0
TRANSPORTER-11 OBJECT AU,2024-149AU,2026-07-14T04:59:29.308704,15.40956171,.00041001,97.3733,279.1569,170.9410,189.1912,0,U,60510,999,10647,.21632211E-3,.8824E-4,0
FLOCK 4BE-2,2024-149AV,2026-07-14T19:22:28.061472,15.55865186,.00053281,97.3835,283.9535,174.8073,185.3238,0,U,60511,999,10679,.58455568E-3,.40514E-3,0
FLOCK 4BE-13,2024-149AW,2026-07-14T19:05:57.996096,15.42609969,.00050512,97.3724,280.5068,156.8857,203.2618,0,U,60512,999,10662,.20503608E-3,.8835E-4,0
